OPTICUBE 04             
1 41851U 16067D   18202.55499229 -.00000433  00000-0 -32553-4 0  9991
2 41851  97.9241 291.1162 0010130  55.6838 304.5341 14.96686212 92236
AEROCUBE 8D             
1 41852U 16067E   18202.46207520  .00000738  00000-0  70217-4 0  9998
2 41852  97.9254 290.8619 0010971  57.5879 302.6402 14.96517240 92201
AEROCUBE 8C             
1 41853U 16067F   18202.47703946  .00000179  00000-0  21094-4 0  9991
2 41853  97.9254 290.8377 0011430  57.4341 302.7982 14.96484262 92208
PROMETHEUS 2-1          
1 41854U 16067G   18202.48097959  .00000087  00000-0  12985-4 0  9990
2 41854  97.9261 290.8592 0011704  56.8497 303.3846 14.96599152 92206
PROMETHEUS 2-3          
1 41855U 16067H   18202.48365444 -.00000052  00000-0  75447-6 0  9995
2 41855  97.9263 290.8672 0011841  56.9376 303.2981 14.96596601 92202
ITF-2                   
1 41932U 98067KU  18202.32315079  .00037569  00000-0  21429-3 0  9993
2 41932  51.6296 164.6265 0003628   7.4872 352.6182 15.78524250 86153
WASEDA-SAT3             
1 41933U 98067KV  18202.25800581  .00076925  00000-0  28519-3 0  9999
2 41933  51.6316 155.7572 0003145  34.6002 325.5207 15.87404027 86268
AOBA-VELOX 3            
1 41935U 98067KX  18202.36612013  .00058974  00000-0  26265-3 0  9994
2 41935  51.6333 158.8472 0003433  22.5873 337.5280 15.83703651 86337
INS-1B                  
1 41954U 17008G   18202.61579803  .00001106  00000-0  49914-4 0  9990
2 41954  97.4438 266.2895 0008190 225.0686 134.9887 15.23094780 79246
BGUSAT                  
1 41999U 17008BD  18202.61813770  .00001807  00000-0  75920-4 0  9997
2 41999  97.4485 267.4542 0006914 244.3547 115.6976 15.24728705 78674
DIDO-2                  
1 42000U 17008BE  18202.42213883  .00000788  00000-0  36244-4 0  9992
2 42000  97.4456 266.5463 0007098 247.7350 112.3135 15.23262547 78612
PEASSS                  
1 42015U 17008BV  18202.25090132  .00001015  00000-0  44760-4 0  9995
2 42015  97.4454 266.8741 0004913 256.0380 104.0311 15.24086098 79102
AL-FARABI 1             
1 42016U 17008BW  18202.43099098  .00001267  00000-0  54447-4 0  9998
2 42016  97.4462 267.2760 0004792 254.9119 105.1589 15.24519460 79260
NAYIF-1 (EO-88)         
1 42017U 17008BX  18202.42469650  .00001268  00000-0  54446-4 0  9993
2 42017  97.4460 267.2768 0004768 255.3866 104.6843 15.24544043 79288
HAVELSAT                
1 42700U 98067LH  18202.53734991  .00028261  00000-0  20673-3 0  9997
2 42700  51.6331 178.8682 0004979  31.9751 328.1549 15.72963754 67429
CXBN-2                  
1 42704U 98067LM  18202.31425702  .00027694  00000-0  20676-3 0  9996
2 42704  51.6343 181.1506 0002110   5.9122 354.1901 15.72504130 67291
ICECUBE                 
1 42705U 98067LN  18202.37123477  .00064502  00000-0  28456-3 0  9990
2 42705  51.6436 170.3501 0002944  37.2642 322.8565 15.83870553 67509
PHOENIX                 
1 42706U 98067LP  18202.35504805  .00019506  00000-0  16030-3 0  9996
2 42706  51.6340 182.1719 0001628  12.2950 347.8086 15.70445043 67276
X-CUBESAT               
1 42707U 98067LQ  18202.37747697  .00031280  00000-0  22160-3 0  9991
2 42707  51.6296 179.2200 0002069  22.8654 337.2437 15.73668780 67302
QBEE50-LTU-OC           
1 42708U 98067LR  18202.53522709  .00030609  00000-0  22615-3 0  9994
2 42708  51.6343 179.6041 0002055  23.9146 336.1947 15.72693622 67278
ALTAIR PATHFINDER       
1 42711U 98067LS  18202.48611254  .00011945  00000-0  12346-3 0  9998
2 42711  51.6343 189.8251 0003369 326.9379  33.1405 15.65223930 66849
SHARC                   
1 42712U 98067LT  18202.42196494  .00020303  00000-0  20238-3 0  9994
2 42712  51.6358 191.7094 0002635 353.3358   6.7602 15.65648133 67054
ZA-AEROSAT              
1 42713U 98067LU  18202.41320482  .00018870  00000-0  16436-3 0  9991
2 42713  51.6332 184.7994 0001943 340.1481  19.9440 15.69054979 66902
LINK                    
1 42714U 98067LV  18202.16839844  .00096229  00000-0  39378-3 0  9995
2 42714  51.6216 170.8805 0002782  39.0491 321.0713 15.85290144 67172
CSUNSAT 1               
1 42715U 98067LW  18202.54503019  .00021693  00000-0  18234-3 0  9991
2 42715  51.6338 183.4513 0003165 328.9823  31.0987 15.69817285 66936
SPACECUBE               
1 42717U 98067LY  18202.43677332  .00027682  00000-0  20624-3 0  9991
2 42717  51.6315 180.4130 0003853  32.8187 327.3050 15.72548463 66332
HOOPOE                  
1 42718U 98067LZ  18202.15122992  .00041248  00000-0  26483-3 0  9991
2 42718  51.6299 178.4989 0003951  31.1260 328.9973 15.75802187 66336
CHALLENGER              
1 42721U 98067MA  18202.36577254  .00274452  42208-4  56045-3 0  9995
2 42721  51.6222 162.3553 0004165  59.8599 300.2822 15.98911259 66269
NJUST-1                 
1 42722U 98067MB  18202.49552797  .00017529  00000-0  15944-3 0  9998
2 42722  51.6341 186.1268 0005776  10.8896 349.2224 15.68038354 65963
UNSW-ECO                
1 42723U 98067MC  18202.45035853  .00044662  00000-0  27364-3 0  9991
2 42723  51.6367 176.7941 0005640  23.2933 336.8322 15.76822247 66069
LILACSAT-1              
1 42725U 98067ME  18202.41554405  .00025047  00000-0  20047-3 0  9995
2 42725  51.6343 183.3288 0004923  16.3462 343.7693 15.70896498 65897
NSIGHT-1                
1 42726U 98067MF  18202.41871100  .00007224  00000-0  86937-4 0  9998
2 42726  51.6373 194.6951 0005531   8.9811 351.1281 15.62023434 65758
SNUSAT-1                
1 42727U 98067MG  18202.49156895  .00025145  00000-0  20147-3 0  9996
2 42727  51.6317 183.0257 0005640 342.3104  17.7696 15.70864394 65874
I-INSPIRE II            
1 42731U 98067ML  18202.43003911  .00047715  00000-0  28402-3 0  9994
2 42731  51.6344 175.8216 0004016 345.5524  14.5361 15.77455361 65859
POLYITAN-2-SAU          
1 42732U 98067MM  18202.51451937  .00030124  00000-0  21539-3 0  9999
2 42732  51.6321 179.4321 0004660 336.6770  23.4017 15.73464816 65815
SNUSAT-1B               
1 42733U 98067MN  18202.38285701  .00026913  00000-0  20796-3 0  9994
2 42733  51.6333 182.3290 0004952 335.2408  24.8352 15.71693680 65766
EXALTA-1                
1 42734U 98067MP  18202.52140756  .00055110  00000-0  31246-3 0  9994
2 42734  51.6267 174.8721 0005885   9.7589 350.3525 15.78472617 65825
BEEAGLESAT              
1 42736U 98067MR  18202.53956758  .00024039  00000-0  19923-3 0  9998
2 42736  51.6329 183.3779 0005843  10.7411 349.3710 15.70076581 65820
UCLSAT                  
1 42765U 17036A   18202.59608266  .00001014  00000-0  47494-4 0  9994
2 42765  97.3985 261.8874 0010638 322.8327  37.2172 15.21933341 60536
LITUANICASAT-2          
1 42768U 17036D   18202.59781973  .00001692  00000-0  78108-4 0  9992
2 42768  97.4002 261.4736 0014236 309.7703  50.2279 15.21503398 59797
AALTO-1                 
1 42775U 17036L   18202.57689108  .00000638  00000-0  32011-4 0  9997
2 42775  97.3976 261.2966 0012811 308.5575  51.4512 15.20804780 59722
URSA MAIOR              
1 42776U 17036M   18202.36426095  .00000712  00000-0  35277-4 0  9999
2 42776  97.3984 261.1460 0012663 309.6437  50.3681 15.20887899 59697
COMPASS 2               
1 42777U 17036N   18202.59840159  .00001413  00000-0  65168-4 0  9997
2 42777  97.4006 261.8202 0011548 312.6102  47.4159 15.21840240 59742
DIAMOND RED             
1 42783U 17036U   18202.60401506  .00000856  00000-0  41029-4 0  9995
2 42783  97.3985 261.7316 0011237 322.4548  37.5902 15.21529449 59748
PEGASUS                 
1 42784U 17036V   18202.37483179  .00000968  00000-0  45749-4 0  9993
2 42784  97.3987 261.5873 0011177 323.3198  36.7272 15.21739308 59716
DIAMOND GREEN           
1 42785U 17036W   18202.60284596  .00000851  00000-0  40835-4 0  9994
2 42785  97.3987 261.7446 0011150 323.2057  36.8413 15.21532096 59813
DIAMOND BLUE            
1 42786U 17036X   18202.60200220  .00000864  00000-0  41414-4 0  9995
2 42786  97.3986 261.7436 0010995 323.5533  36.4953 15.21531202 59813
NUDTSAT                 
1 42787U 17036Y   18202.60848771  .00001468  00000-0  66628-4 0  9990
2 42787  97.3996 262.0523 0010653 322.1335  37.9151 15.22348929 59608
SUCHAI                  
1 42788U 17036Z   18202.58888892  .00001153  00000-0  53460-4 0  9997
2 42788  97.3988 261.9108 0010755 322.5339  37.5146 15.22021433 59820
SKCUBE                  
1 42789U 17036AA  18202.58922312  .00001076  00000-0  50185-4 0  9999
2 42789  97.3986 261.9028 0010612 322.6343  37.4154 15.21978223 59744
VZLUSAT-1               
1 42790U 17036AB  18202.59734039  .00001315  00000-0  59975-4 0  9991
2 42790  97.3992 262.0487 0010231 322.9190  37.1338 15.22366907 59757
ROBUSTA-1B              
1 42792U 17036AD  18202.62038334  .00001137  00000-0  52632-4 0  9997
2 42792  97.3985 262.0028 0010208 323.9014  36.1532 15.22124748 59763
CICERO 6                
1 42793U 17036AE  18202.61854149  .00000861  00000-0  40819-4 0  9994
2 42793  97.3978 261.9851 0009426 325.9551  34.1079 15.21941236 59836
D-SAT                   
1 42794U 17036AF  18202.60855354  .00000159  00000-0  19314-4 0  9999
2 42794  97.5888 255.9618 0127460 167.0293 193.4257 14.90892071 58855
TOKI                    
1 42820U 98067MU  18202.37479856  .00021087  00000-0  18236-3 0  9999
2 42820  51.6331 186.7876 0002252 326.6991  33.3864 15.69145905 59227
MAZAALAI (NUMSAT-1)     
1 42822U 98067MW  18202.54226770  .00021318  00000-0  18663-3 0  9996
2 42822  51.6333 186.4135 0002362 331.9206  28.1663 15.68838058 59244
BRAC ONNESHA            
1 42823U 98067MX  18202.40863237  .00020975  00000-0  18285-3 0  9995
2 42823  51.6338 187.0408 0004833 336.2296  23.8477 15.68946018 59209
NIGERIAEDUSAT-1         
1 42824U 98067MY  18202.37389708  .00020691  00000-0  18221-3 0  9993
2 42824  51.6344 187.5770 0004736 336.4138  23.6641 15.68708692 59185
CORVUS BC2              
1 42846U 17042X   18202.61515104  .00000250  00000-0  30091-4 0  9998
2 42846  97.5941 104.2414 0011205  82.7572 277.4921 14.91834466 55500
